[{"OBJECT_NAME":"RISAT-2BR2","OBJECT_ID":"2020-081A","EPOCH":"2026-03-09T12:34:56.452800","MEAN_MOTION":15.01602463,"ECCENTRICITY":0.00109054,"INCLINATION":36.898,"RA_OF_ASC_NODE":95.9121,"ARG_OF_PERICENTER":52.9142,"MEAN_ANOMALY":307.2595,"EPHEMERIS_TYPE":0,"CLASSIFICATION_TYPE":"U","NORAD_CAT_ID":46905,"ELEMENT_SET_NO":999,"REV_AT_EPOCH":29248,"BSTAR":0.00037609291,"MEAN_MOTION_DOT":4.901e-5,"MEAN_MOTION_DDOT":0},{"OBJECT_NAME":"STARLINK-6138","OBJECT_ID":"2023-099B","EPOCH":"2026-03-09T21:15:04.793760","MEAN_MOTION":15.02521422,"ECCENTRICITY":0.00011299,"INCLINATION":43.0023,"RA_OF_ASC_NODE":248.1099,"ARG_OF_PERICENTER":254.6982,"MEAN_ANOMALY":105.3735,"EPHEMERIS_TYPE":0,"CLASSIFICATION_TYPE":"U","NORAD_CAT_ID":57329,"ELEMENT_SET_NO":999,"REV_AT_EPOCH":14614,"BSTAR":8.3528975e-5,"MEAN_MOTION_DOT":9.25e-6,"MEAN_MOTION_DDOT":0}]
